      2.10          N: GNSS NAV DATA                        RINEX VERSION / TYPE
fic2rin                                 10/03/2018 00:21:41 PGM / RUN BY / DATE
                                                            END OF HEADER
23 18 10  2  8  0  0.0-2.096239477396e-04 7.958078640513e-13 0.000000000000e+00
    3.200000000000e+01 8.843750000000e+00 5.158786312728e-09-2.220275011366e-01
    6.183981895447e-07 1.263918285258e-02 7.413327693939e-06 5.153715539932e+03
    2.016000000000e+05 5.960464477539e-08-2.930046287549e+00 2.067536115646e-07
    9.437996911940e-01 2.292812500000e+02-2.325288072393e+00-8.492853761449e-09
   -1.107188976008e-11 1.000000000000e+00 2.021000000000e+03 0.000000000000e+00
    2.400000000000e+00 0.000000000000e+00-2.002343535423e-08 3.200000000000e+01
    1.944060000000e+05 4.000000000000e+00
17 18 10  2  8  0  0.0-4.907371476293e-05 4.433786671143e-12 0.000000000000e+00
    2.400000000000e+01-2.900000000000e+01 4.260177453491e-09 1.160489718163e+00
   -1.695007085800e-06 1.264570013154e-02 4.623085260391e-06 5.153621206284e+03
    2.016000000000e+05-2.123415470123e-07 2.788898819344e-01-7.450580596924e-08
    9.835513695939e-01 3.074062500000e+02-1.772693312980e+00-8.259629761019e-09
   -1.050043738536e-10 1.000000000000e+00 2.021000000000e+03 0.000000000000e+00
    2.400000000000e+00 0.000000000000e+00-1.117587089539e-08 2.400000000000e+01
    1.944060000000e+05 4.000000000000e+00
 9 18 10  2  8  0  0.0 5.031139589846e-04-2.387423592154e-12 0.000000000000e+00
    3.200000000000e+01 8.906250000000e+00 4.825200988989e-09 1.602357119554e+00
    4.880130290985e-07 1.075243693776e-03 7.439404726028e-06 5.153529251099e+03
    2.016000000000e+05 6.891787052155e-08-2.927215443050e+00-1.303851604462e-08
    9.529853859979e-01 2.315000000000e+02 1.730168136470e+00-8.148196547949e-09
   -1.678641350722e-11 1.000000000000e+00 2.021000000000e+03 0.000000000000e+00
    2.400000000000e+00 0.000000000000e+00 9.313225746155e-10 3.200000000000e+01
    1.944060000000e+05 4.000000000000e+00
 8 18 10  2  8  0  0.0-1.171329058707e-04-1.364242052659e-12 0.000000000000e+00
    8.900000000000e+01-3.559375000000e+01 4.605548982459e-09 1.546594458164e+00
   -1.700595021248e-06 3.588645136915e-03 3.442168235779e-06 5.153634397507e+03
    2.016000000000e+05 4.097819328308e-08 2.146614818552e-01 1.862645149231e-09
    9.699819749341e-01 3.142500000000e+02-4.128678607350e-01-8.364634134872e-09
   -1.578637185147e-10 1.000000000000e+00 2.021000000000e+03 0.000000000000e+00
    3.400000000000e+00 0.000000000000e+00 5.122274160385e-09 8.900000000000e+01
    1.944060000000e+05 4.000000000000e+00
19 18 10  2  8  0  0.0-3.973855637014e-04 3.524291969370e-12 0.000000000000e+00
    2.400000000000e+01-3.668750000000e+01 4.225533153274e-09-2.366678577457e+00
   -1.860782504082e-06 9.604476974346e-03 3.961846232414e-06 5.153605922699e+03
    2.016000000000e+05 1.713633537292e-07 3.255938049403e-01 7.078051567078e-08
    9.811596345856e-01 3.115000000000e+02 1.293397025258e+00-7.989975671701e-09
    2.250093725435e-11 1.000000000000e+00 2.021000000000e+03 0.000000000000e+00
    2.400000000000e+00 0.000000000000e+00-1.536682248116e-08 2.400000000000e+01
    1.944060000000e+05 4.000000000000e+00
20 18 10  2  8  0  0.0 5.166823975742e-04 5.684341886081e-13 0.000000000000e+00
    2.500000000000e+01-7.875000000000e+00 5.178787145843e-09-1.163380014190e+00
   -3.967434167862e-07 4.332881537266e-03 9.134411811829e-06 5.153670021057e+03
    2.016000000000e+05-8.009374141693e-08 2.209328388904e+00 1.005828380585e-07
    9.290493646923e-01 1.883750000000e+02 2.114513778923e+00-8.339633093479e-09
    3.950164540209e-10 1.000000000000e+00 2.021000000000e+03 0.000000000000e+00
    2.400000000000e+00 0.000000000000e+00-8.381903171539e-09 2.500000000000e+01
    1.944060000000e+05 4.000000000000e+00
22 18 10  2  8  0  0.0-5.354555323720e-04-1.057287590811e-11 0.000000000000e+00
    7.200000000000e+01-2.228125000000e+01 5.333436444750e-09 4.035889736607e-01
   -1.074746251106e-06 7.037597126327e-03 9.052455425262e-06 5.153697105408e+03
    2.016000000000e+05-7.450580596924e-08 2.258804828402e+00-7.823109626770e-08
    9.258144592941e-01 1.907187500000e+02-1.476061233727e+00-8.468567035523e-09
    2.439387324559e-10 1.000000000000e+00 2.021000000000e+03 0.000000000000e+00
    2.400000000000e+00 0.000000000000e+00-1.816079020500e-08 7.200000000000e+01
    1.944060000000e+05 4.000000000000e+00
14 18 10  2  8  0  0.0-9.698746725917e-05 2.273736754432e-13 0.000000000000e+00
    9.000000000000e+01 5.906250000000e+00 4.703410201628e-09 8.931444761953e-01
    2.533197402954e-07 1.004412479233e-02 7.729977369308e-06 5.153626691818e+03
    2.016000000000e+05-1.471489667892e-07-2.836383185739e+00 7.450580596924e-09
    9.611515746553e-01 2.299062500000e+02-1.942843524168e+00-8.203913154484e-09
   -1.992940156814e-10 1.000000000000e+00 2.021000000000e+03 0.000000000000e+00
    2.400000000000e+00 0.000000000000e+00-9.778887033463e-09 9.000000000000e+01
    1.944060000000e+05 4.000000000000e+00
13 18 10  2  8  0  0.0-8.797692134976e-05 7.958078640513e-13 0.000000000000e+00
    7.700000000000e+01 7.343750000000e+00 4.511259340631e-09-3.067341152214e-02
    3.036111593246e-07 3.436212311499e-03 7.634982466698e-06 5.153664869308e+03
    2.016000000000e+05-2.980232238770e-08-2.793621886936e+00-9.313225746155e-09
    9.685803970099e-01 2.371250000000e+02 1.451854105905e+00-8.072836266034e-09
   -1.200049986899e-10 1.000000000000e+00 2.021000000000e+03 0.000000000000e+00
    2.400000000000e+00 0.000000000000e+00-1.117587089539e-08 7.700000000000e+01
    1.944060000000e+05 4.000000000000e+00
11 18 10  2  8  0  0.0-7.134298793972e-04 3.183231456205e-12 0.000000000000e+00
    9.000000000000e+01-8.590625000000e+01 5.778812139293e-09-1.680167321302e+00
   -4.207715392113e-06 1.696982083376e-02 5.813315510750e-06 5.153663259506e+03
    2.016000000000e+05-1.098960638046e-07 8.445621049331e-01 4.731118679047e-07
    9.067610909248e-01 2.374687500000e+02 1.823176657049e+00-8.805723936604e-09
   -1.785788670980e-10 1.000000000000e+00 2.021000000000e+03 0.000000000000e+00
    3.400000000000e+00 0.000000000000e+00-1.210719347000e-08 9.000000000000e+01
    1.944060000000e+05 4.000000000000e+00
32 18 10  2  8  0  0.0-4.061609506607e-04 1.205080479849e-11 0.000000000000e+00
    5.700000000000e+01 5.468750000000e+00 4.737340186377e-09 1.907658565454e+00
    3.241002559662e-07 2.310593263246e-03 7.366761565208e-06 5.153704257965e+03
    2.016000000000e+05-6.332993507385e-08-2.921631386726e+00-1.303851604462e-08
    9.573209236648e-01 2.311562500000e+02-2.558584011637e+00-8.088194048605e-09
   -8.607501394126e-11 1.000000000000e+00 2.021000000000e+03 0.000000000000e+00
    2.400000000000e+00 0.000000000000e+00 4.656612873077e-10 5.700000000000e+01
    1.944060000000e+05 4.000000000000e+00
26 18 10  2  8  0  0.0-2.931803464890e-06 1.148237060988e-11 0.000000000000e+00
    4.400000000000e+01 8.800000000000e+01 4.767698593784e-09 3.084704987716e+00
    4.658475518227e-06 2.964800689369e-03 5.774199962616e-06 5.153732051849e+03
    2.016000000000e+05-2.793967723846e-08-8.399744274836e-01-4.656612873077e-08
    9.543349981461e-01 2.660625000000e+02 5.012796176796e-02-8.260344076487e-09
    1.557207721095e-10 1.000000000000e+00 2.021000000000e+03 0.000000000000e+00
    2.400000000000e+00 0.000000000000e+00 7.450580596924e-09 4.400000000000e+01
    1.944060000000e+05 4.000000000000e+00
24 18 10  2  8  0  0.0-5.618948489428e-05-5.684341886081e-13 0.000000000000e+00
    9.500000000000e+01 3.506250000000e+01 4.997351016872e-09-6.568312259884e-01
    1.914799213409e-06 7.332339766435e-03 8.419156074524e-06 5.153628175735e+03
    2.016000000000e+05 1.452863216400e-07-1.911954001610e+00 1.192092895508e-07
    9.403710164445e-01 2.075312500000e+02 5.371136438878e-01-8.329275519187e-09
   -2.007226466182e-10 1.000000000000e+00 2.021000000000e+03 0.000000000000e+00
    2.400000000000e+00 0.000000000000e+00 2.793967723846e-09 9.500000000000e+01
    1.944060000000e+05 4.000000000000e+00
16 18 10  2  8  0  0.0 6.254296749830e-06-1.818989403546e-12 0.000000000000e+00
    1.090000000000e+02 8.240625000000e+01 4.158744656979e-09 2.131265078922e+00
    4.243105649948e-06 1.001444470603e-02 5.993992090225e-06 5.153707084656e+03
    2.016000000000e+05-2.477318048477e-07-7.354658274238e-01-3.911554813385e-08
    9.857882240021e-01 2.783750000000e+02 5.204329721108e-01-7.993904406777e-09
    1.564350875779e-10 1.000000000000e+00 2.021000000000e+03 0.000000000000e+00
    2.400000000000e+00 0.000000000000e+00-1.071020960808e-08 1.090000000000e+02
    1.944060000000e+05 4.000000000000e+00
30 18 10  2  8  0  0.0 1.604249700904e-05-5.343281372916e-12 0.000000000000e+00
    1.000000000000e+02 4.175000000000e+01 4.860559604675e-09-1.692877432992e+00
    1.916661858559e-06 3.622762393206e-03 9.343028068542e-06 5.153684970856e+03
    2.016000000000e+05-4.656612873077e-08-1.818290267820e+00-4.470348358154e-08
    9.427857295070e-01 1.896875000000e+02-2.975191636651e+00-8.173554747077e-09
   -1.542921411727e-10 1.000000000000e+00 2.021000000000e+03 0.000000000000e+00
    3.400000000000e+00 0.000000000000e+00 3.725290298462e-09 1.000000000000e+02
    1.944060000000e+05 4.000000000000e+00
18 18 10  2  8  0  0.0 6.369315087795e-05 4.206412995700e-12 0.000000000000e+00
    6.200000000000e+01-8.790625000000e+01 4.736983028643e-09-1.254331666097e+00
   -4.416331648827e-06 1.498864265159e-02 8.461996912956e-06 5.153630056381e+03
    2.016000000000e+05 2.421438694000e-08 1.230043216123e+00 4.041939973831e-07
    9.509117449710e-01 2.093750000000e+02 1.353030749287e+00-8.274987543589e-09
   -9.178953768839e-11 1.000000000000e+00 2.021000000000e+03 0.000000000000e+00
    2.400000000000e+00 0.000000000000e+00-6.519258022308e-09 6.200000000000e+01
    1.944060000000e+05 4.000000000000e+00
